OBJECT_NAME,OBJECT_ID,EPOCH,MEAN_MOTION,ECCENTRICITY,INCLINATION,RA_OF_ASC_NODE,ARG_OF_PERICENTER,MEAN_ANOMALY,EPHEMERIS_TYPE,CLASSIFICATION_TYPE,NORAD_CAT_ID,ELEMENT_SET_NO,REV_AT_EPOCH,BSTAR,MEAN_MOTION_DOT,MEAN_MOTION_DDOT
STARLINK-37940,2026-145P,2026-07-22T14:00:03.000384,15.66578113,.00011431,97.2843,50.8060,83.4444,186.9686,0,U,69690,999,561,-.78113541E-2,-.744766E-2,0
STARLINK-37961,2026-145Q,2026-07-22T14:00:03.000384,15.58420858,.00022199,97.2847,50.7911,80.1859,146.1013,0,U,69691,999,561,-.34861146E-1,-.2330061E-1,0
STARLINK-37787,2026-145R,2026-07-22T14:00:03.000384,15.63137550,.00019164,97.2845,50.8139,90.0507,194.4174,0,U,69692,999,561,-.26944014E-1,-.2137124E-1,0
STARLINK-37962,2026-145S,2026-07-22T14:00:03.000384,15.65977828,.00016204,97.2844,50.8220,81.9261,226.2709,0,U,69693,999,561,-.26011483E-1,-.2334707E-1,0
STARLINK-37953,2026-145T,2026-07-22T14:00:03.000384,15.56876213,.0002174,97.2847,50.7855,88.2675,125.0379,0,U,69694,999,561,-.37892531E-1,-.2381998E-1,0
STARLINK-37926,2026-145U,2026-07-22T14:00:03.000384,15.57575321,.00022102,97.2848,50.7872,84.3446,139.5296,0,U,69695,999,561,-.35979049E-1,-.232927E-1,0
STARLINK-37959,2026-145V,2026-07-22T14:00:03.000384,15.64824208,.00017686,97.2845,50.8181,97.4229,202.2004,0,U,69696,999,561,-.26217967E-1,-.2211669E-1,0
STARLINK-37976,2026-145W,2026-07-22T14:00:03.000384,15.62735360,.00016522,97.2844,50.8187,87.7097,213.1619,0,U,69697,999,561,-.31405196E-1,-.2459593E-1,0
STARLINK-37912,2026-145X,2026-07-22T03:20:08.431872,15.75259796,.0001121,97.2844,50.3778,85.2383,274.9010,0,U,69698,999,427,.16453523E-2,.253475E-2,0
STARLINK-37974,2026-145Y,2026-07-20T02:31:46.952256,15.75193191,.00031968,97.2826,48.2458,71.4063,288.7550,0,U,69699,999,395,.32060592E-3,.47977E-3,0
STARLINK-37955,2026-145Z,2026-07-22T14:00:03.000384,15.62291687,.00010852,97.2843,50.8217,84.2361,222.1751,0,U,69700,999,561,-.12494221E-1,-.992716E-2,0
STARLINK-38055,2026-147A,2026-07-22T14:00:03.000384,15.68521628,.00013361,97.2850,240.3719,90.8191,258.6509,0,U,69704,999,492,-.24251307E-1,-.2404568E-1,0
STARLINK-37898,2026-147B,2026-07-22T14:00:03.000384,15.62636962,.00014007,97.2851,240.3512,101.0445,198.2723,0,U,69705,999,492,-.31220323E-1,-.2438475E-1,0
STARLINK-37970,2026-147C,2026-07-22T14:00:03.000384,15.62153060,.00014403,97.2852,240.3492,104.9590,190.3775,0,U,69706,999,492,-.30983282E-1,-.2382482E-1,0
STARLINK-37975,2026-147D,2026-07-22T14:00:03.000384,15.67504131,.00014058,97.2848,240.3767,84.4008,274.6552,0,U,69707,999,492,-.2621716E-1,-.2482017E-1,0
STARLINK-37972,2026-147E,2026-07-22T13:44:55.462560,15.78813088,.00019352,97.2834,240.3937,157.3267,202.8086,0,U,69708,999,502,-.32335358E-2,-.532545E-2,0
STARLINK-37963,2026-147F,2026-07-22T14:00:03.000384,15.65331743,.000116,97.2849,240.3656,69.8719,262.5583,0,U,69709,999,492,-.81191659E-2,-.737014E-2,0
STARLINK-37969,2026-147G,2026-07-22T14:00:03.000384,15.64448370,.00013366,97.2848,240.3673,89.7276,247.7277,0,U,69710,999,507,-.28742194E-1,-.2414857E-1,0
STARLINK-37956,2026-147H,2026-07-22T14:00:03.000384,15.61385038,.0001439,97.2848,240.3552,96.9525,211.5463,0,U,69711,999,492,-.32350554E-1,-.2410322E-1,0
STARLINK-38043,2026-147J,2026-07-22T14:00:03.000384,15.77831482,.00018211,97.2842,240.4086,88.7719,345.0654,0,U,69712,999,492,-.16912168E-1,-.243758E-1,0
STARLINK-38020,2026-147K,2026-07-22T14:00:03.000384,15.62879194,.00011078,97.2847,240.3621,88.3601,237.1834,0,U,69713,999,492,-.3016778E-1,-.2385902E-1,0
STARLINK-38059,2026-147L,2026-07-22T14:00:03.000384,15.61675169,.00011809,97.2849,240.3585,97.9044,218.0914,0,U,69714,999,492,-.31440357E-1,-.2373934E-1,0
STARLINK-38061,2026-147M,2026-07-22T14:00:03.000384,15.65960433,.00013959,97.2845,240.3850,66.8987,311.5943,0,U,69715,999,501,-.2754134E-1,-.2453085E-1,0
STARLINK-38060,2026-147N,2026-07-22T14:00:03.000384,15.74058885,.00015549,97.2845,240.4114,77.2628,4.1699,0,U,69716,999,501,-.19898614E-1,-.2428315E-1,0
STARLINK-38040,2026-147P,2026-07-22T14:00:03.000384,15.64962086,.00013543,97.2846,240.3861,71.2320,309.9561,0,U,69717,999,501,-.30200809E-1,-.2566693E-1,0
STARLINK-37989,2026-147Q,2026-07-22T14:00:03.000384,15.64934385,.00013515,97.2851,240.3761,75.5675,282.1090,0,U,69718,999,501,-.25693907E-1,-.21813E-1,0
STARLINK-38039,2026-147R,2026-07-21T13:13:53.019840,15.80885144,.00023584,97.2833,239.3333,67.0568,293.0949,0,U,69719,999,486,.11824531E-2,.23326E-2,0
STARLINK-38003,2026-147S,2026-07-22T14:00:03.000384,15.74695737,.00016242,97.2844,240.4191,79.7516,21.4172,0,U,69720,999,501,-.19279655E-1,-.2420482E-1,0
STARLINK-38014,2026-147T,2026-07-22T14:00:03.000384,15.73224070,.00017104,97.2842,240.4194,75.9030,23.0554,0,U,69721,999,501,-.20664853E-1,-.2431895E-1,0
STARLINK-37915,2026-147U,2026-07-22T14:00:03.000384,15.75269873,.00018715,97.2840,240.4235,71.5866,37.9419,0,U,69722,999,501,-.18937022E-1,-.2435781E-1,0
