STARLINK-37940          
1 69690U 26145P   26203.58336806 -.00744766  00000+0 -78114-2 0  9998
2 69690  97.2843  50.8060 0001143  83.4444 186.9686 15.66578113  5619
STARLINK-37961          
1 69691U 26145Q   26203.58336806 -.02330061  00000+0 -34861-1 0  9990
2 69691  97.2847  50.7911 0002219  80.1859 146.1013 15.58420858  5612
STARLINK-37787          
1 69692U 26145R   26203.58336806 -.02137124  00000+0 -26944-1 0  9999
2 69692  97.2845  50.8139 0001916  90.0507 194.4174 15.63137550  5611
STARLINK-37962          
1 69693U 26145S   26203.58336806 -.02334707  00000+0 -26011-1 0  9991
2 69693  97.2844  50.8220 0001620  81.9261 226.2709 15.65977828  5610
STARLINK-37953          
1 69694U 26145T   26203.58336806 -.02381998  00000+0 -37893-1 0  9996
2 69694  97.2847  50.7855 0002174  88.2675 125.0379 15.56876213  5616
STARLINK-37926          
1 69695U 26145U   26203.58336806 -.02329270  00000+0 -35979-1 0  9995
2 69695  97.2848  50.7872 0002210  84.3446 139.5296 15.57575321  5616
STARLINK-37959          
1 69696U 26145V   26203.58336806 -.02211669  00000+0 -26218-1 0  9994
2 69696  97.2845  50.8181 0001768  97.4229 202.2004 15.64824208  5613
STARLINK-37976          
1 69697U 26145W   26203.58336806 -.02459593  00000+0 -31405-1 0  9999
2 69697  97.2844  50.8187 0001652  87.7097 213.1619 15.62735360  5617
STARLINK-37912          
1 69698U 26145X   26203.13898648  .00253475  00000+0  16454-2 0  9993
2 69698  97.2844  50.3778 0001121  85.2383 274.9010 15.75259796  4270
STARLINK-37974          
1 69699U 26145Y   26201.10540454  .00047977  00000+0  32061-3 0  9999
2 69699  97.2826  48.2458 0003196  71.4063 288.7550 15.75193191  3950
STARLINK-37955          
1 69700U 26145Z   26203.58336806 -.00992716  00000+0 -12494-1 0  9998
2 69700  97.2843  50.8217 0001085  84.2361 222.1751 15.62291687  5617
STARLINK-38055          
1 69704U 26147A   26203.58336806 -.02404568  00000+0 -24251-1 0  9993
2 69704  97.2850 240.3719 0001336  90.8191 258.6509 15.68521628  4920
STARLINK-37898          
1 69705U 26147B   26203.58336806 -.02438475  00000+0 -31220-1 0  9992
2 69705  97.2851 240.3512 0001400 101.0445 198.2723 15.62636962  4921
STARLINK-37970          
1 69706U 26147C   26203.58336806 -.02382482  00000+0 -30983-1 0  9994
2 69706  97.2852 240.3492 0001440 104.9590 190.3775 15.62153060  4920
STARLINK-37975          
1 69707U 26147D   26203.58336806 -.02482017  00000+0 -26217-1 0  9995
2 69707  97.2848 240.3767 0001405  84.4008 274.6552 15.67504131  4921
STARLINK-37972          
1 69708U 26147E   26203.57286415 -.00532545  00000+0 -32335-2 0  9994
2 69708  97.2834 240.3937 0001935 157.3267 202.8086 15.78813088  5024
STARLINK-37963          
1 69709U 26147F   26203.58336806 -.00737014  00000+0 -81192-2 0  9999
2 69709  97.2849 240.3656 0001160  69.8719 262.5583 15.65331743  4920
STARLINK-37969          
1 69710U 26147G   26203.58336806 -.02414857  00000+0 -28742-1 0  9991
2 69710  97.2848 240.3673 0001336  89.7276 247.7277 15.64448370  5070
STARLINK-37956          
1 69711U 26147H   26203.58336806 -.02410322  00000+0 -32351-1 0  9996
2 69711  97.2848 240.3552 0001439  96.9525 211.5463 15.61385038  4925
STARLINK-38043          
1 69712U 26147J   26203.58336806 -.02437580  00000+0 -16912-1 0  9997
2 69712  97.2842 240.4086 0001821  88.7719 345.0654 15.77831482  4923
STARLINK-38020          
1 69713U 26147K   26203.58336806 -.02385902  00000+0 -30168-1 0  9997
2 69713  97.2847 240.3621 0001107  88.3601 237.1834 15.62879194  4923
STARLINK-38059          
1 69714U 26147L   26203.58336806 -.02373934  00000+0 -31440-1 0  9994
2 69714  97.2849 240.3585 0001180  97.9044 218.0914 15.61675169  4925
STARLINK-38061          
1 69715U 26147M   26203.58336806 -.02453085  00000+0 -27541-1 0  9998
2 69715  97.2845 240.3850 0001395  66.8987 311.5943 15.65960433  5013
STARLINK-38060          
1 69716U 26147N   26203.58336806 -.02428315  00000+0 -19899-1 0  9994
2 69716  97.2845 240.4114 0001554  77.2628   4.1699 15.74058885  5015
STARLINK-38040          
1 69717U 26147P   26203.58336806 -.02566693  00000+0 -30201-1 0  9997
2 69717  97.2846 240.3861 0001354  71.2320 309.9561 15.64962086  5016
STARLINK-37989          
1 69718U 26147Q   26203.58336806 -.02181300  00000+0 -25694-1 0  9996
2 69718  97.2851 240.3761 0001351  75.5675 282.1090 15.64934385  5019
STARLINK-38039          
1 69719U 26147R   26202.55130810  .00233260  00000+0  11825-2 0  9991
2 69719  97.2833 239.3333 0002358  67.0568 293.0949 15.80885144  4860
STARLINK-38003          
1 69720U 26147S   26203.58336806 -.02420482  00000+0 -19280-1 0  9990
2 69720  97.2844 240.4191 0001624  79.7516  21.4172 15.74695737  5016
STARLINK-38014          
1 69721U 26147T   26203.58336806 -.02431895  00000+0 -20665-1 0  9990
2 69721  97.2842 240.4194 0001710  75.9030  23.0554 15.73224070  5012
STARLINK-37915          
1 69722U 26147U   26203.58336806 -.02435781  00000+0 -18937-1 0  9998
2 69722  97.2840 240.4235 0001871  71.5866  37.9419 15.75269873  5010
